NOAA 15                 
1 25338U 98030A   22212.54977479  .00000085  00000+0  53700-4 0  9993
2 25338  98.6418 241.5037 0010733 163.0566 197.0975 14.26156243259303
DMSP 5D-3 F15 (USA 147) 
1 25991U 99067A   22212.50091536  .00000038  00000+0  42382-4 0  9998
2 25991  99.0542 204.8329 0011148  66.1854 103.7695 14.16557286170026
METEOSAT-8 (MSG-1)      
1 27509U 02040B   22212.20970385  .00000137  00000+0  00000+0 0  9991
2 27509   8.1148  50.4132 0000022 147.7151 227.6199  1.00277341 73058
DMSP 5D-3 F16 (USA 172) 
1 28054U 03048A   22212.49661299 -.00000054  00000+0 -44117-5 0  9991
2 28054  98.9909 203.5375 0007103 184.7403 334.5108 14.13677025969248
NOAA 18                 
1 28654U 05018A   22212.47072847  .00000128  00000+0  93022-4 0  9997
2 28654  98.9473 282.8683 0013942 203.0338 157.0210 14.12759191886280
METEOSAT-9 (MSG-2)      
1 28912U 05049B   22212.21057587  .00000130  00000+0  00000+0 0  9996
2 28912   6.1135  66.0217 0000741 323.1694  41.0610  1.00271060 60838
EWS-G1 (GOES 13)        
1 29155U 06018A   22212.50066134  .00000042  00000+0  00000+0 0  9995
2 29155   0.7031  96.7596 0004767  93.2814   0.5296  1.00274450 29172
DMSP 5D-3 F17 (USA 191) 
1 29522U 06050A   22212.51210574 -.00000021  00000+0  11646-4 0  9990
2 29522  98.7660 226.7402 0010714 131.6549 228.5543 14.14104330812138
FENGYUN 3A              
1 32958U 08026A   22212.33471464  .00000010  00000+0  24723-4 0  9996
2 32958  98.5051 173.1798 0007570 254.9601 105.0738 14.18730564734444
FENGYUN 2E              
1 33463U 08066A   22212.57755681 -.00000202  00000+0  00000+0 0  9995
2 33463   6.0004  65.0612 0002943  17.7915 161.0102  1.00271961 49886
NOAA 19                 
1 33591U 09005A   22212.54786125  .00000082  00000+0  69576-4 0  9998
2 33591  99.1453 247.6051 0014835  66.4394 293.8334 14.12593775694412
GOES 14                 
1 35491U 09033A   22212.45162962 -.00000088  00000+0  00000+0 0  9996
2 35491   0.4175  94.8533 0013991 116.6796 155.5210  1.00272862 47909
METEOR-M 1              
1 35865U 09049A   22212.36256568  .00000015  00000+0  25804-4 0  9997
2 35865  98.5309 181.4228 0003483  94.9013 265.2563 14.22347283667782
DMSP 5D-3 F18 (USA 210) 
1 35951U 09057A   22212.50355926  .00000142  00000+0  98251-4 0  9993
2 35951  98.7245 190.8095 0010448 327.5193  32.5336 14.13532966659359
GOES 15                 
1 36411U 10008A   22212.49803988  .00000056  00000+0  00000+0 0  9991
2 36411   0.3894 100.1317 0002381  45.1703 215.0461  1.00280384 45462
COMS 1                  
1 36744U 10032A   22212.53660529 -.00000341  00000+0  00000+0 0  9992
2 36744   1.1833  92.3376 0000768  21.2919 156.8168  1.00272357 36884
FENGYUN 3B              
1 37214U 10059A   22212.35663367 -.00000023  00000+0  12341-4 0  9990
2 37214  99.0920 219.1089 0021424 229.6895 130.2415 14.14260823607169
SUOMI NPP               
1 37849U 11061A   22212.53463601  .00000005  00000+0  22981-4 0  9997
2 37849  98.7331 150.4780 0001201  89.6685 329.1327 14.19535831557458
FENGYUN 2F              
1 38049U 12002A   22208.56021712 -.00000358  00000+0  00000+0 0  9992
2 38049   3.8862  79.4073 0000124  84.5397  94.6597  1.00284488 38642
METEOSAT-10 (MSG-3)     
1 38552U 12035B   22212.27510412  .00000063  00000+0  00000+0 0  9992
2 38552   1.5847  43.6096 0000779  23.0195 350.6651  1.00266195 36657
METOP-B                 
1 38771U 12049A   22212.49074560  .00000030  00000+0  33588-4 0  9999
2 38771  98.6931 271.5861 0000496  74.3426  49.7478 14.21498721511992
FENGYUN 3C              
1 39260U 13052A   22212.36514367  .00000051  00000+0  46800-4 0  9992
2 39260  98.4522 238.2520 0011724 143.1178 217.0806 14.15934334458136
METEOR-M 2              
1 40069U 14037A   22212.34028130  .00000012  00000+0  24692-4 0  9993
2 40069  98.4308 228.1408 0005387 183.4958 176.6184 14.20714576418091
HIMAWARI-8              
1 40267U 14060A   22212.52271310 -.00000272  00000+0  00000+0 0  9990
2 40267   0.0298 253.6377 0000875 217.3315 166.9724  1.00273872 28550
FENGYUN 2G              
1 40367U 14090A   22212.50838691 -.00000301  00000+0  00000+0 0  9996
2 40367   2.0417  89.0780 0000876 278.7167 224.1085  1.00274300 27791
METEOSAT-11 (MSG-4)     
1 40732U 15034A   22212.34497146 -.00000001  00000+0  00000+0 0  9996
2 40732   0.3761  65.7541 0001499  28.2979 339.1237  1.00264845 25828
ELEKTRO-L 2             
1 41105U 15074A   22212.41854903 -.00000113  00000+0  00000+0 0  9995
2 41105   3.0959  87.6546 0002165  81.5360 276.0092  1.00273537 24305
HIMAWARI-9              
1 41836U 16064A   22212.52271310 -.00000271  00000+0  00000+0 0  9998
2 41836   0.0144  31.0813 0000648 123.7550 123.2262  1.00271524 20989
GOES 16                 
1 41866U 16071A   22212.40170575 -.00000244  00000+0  00000+0 0  9997
2 41866   0.0568 253.3681 0000522 292.6568 192.3776  1.00270865 20906
FENGYUN 4A              
1 41882U 16077A   22212.58104481 -.00000327  00000+0  00000+0 0  9995
2 41882   0.0831  76.0979 0002612  49.1941 137.6628  1.00276133 20776
CYGFM05                 
1 41884U 16078A   22212.55223412  .00001031  00000+0  53263-4 0  9997
2 41884  34.9561 287.1454 0014477 127.1145 233.0892 15.16524922311481
CYGFM04                 
1 41885U 16078B   22212.52293683  .00001032  00000+0  52510-4 0  9997
2 41885  34.9489 276.3132 0013103 144.8855 215.2722 15.17059480311525
CYGFM02                 
1 41886U 16078C   22212.51259677  .00001105  00000+0  56053-4 0  9999
2 41886  34.9581 278.5998 0013723 138.4853 221.6904 15.17098058311604
CYGFM01                 
1 41887U 16078D   22212.55979691  .00001036  00000+0  53786-4 0  9992
2 41887  34.9529 289.5608 0014899 126.4097 233.7991 15.16331632311437
CYGFM08                 
1 41888U 16078E   22212.46495258  .00001077  00000+0  55128-4 0  9992
2 41888  34.9496 282.5964 0014208 138.0631 222.1171 15.16802672311558
CYGFM06                 
1 41889U 16078F   22212.55828427  .00001134  00000+0  57485-4 0  9993
2 41889  34.9576 276.9880 0012691 138.9578 221.2090 15.17113357311551
CYGFM07                 
1 41890U 16078G   22212.54459680  .00001083  00000+0  55054-4 0  9998
2 41890  34.9514 275.9179 0012535 143.5542 216.6025 15.17045395311535
CYGFM03                 
1 41891U 16078H   22212.54344083  .00001075  00000+0  54680-4 0  9994
2 41891  34.9547 276.4112 0012048 141.5123 218.6450 15.17038489311526
FENGYUN 3D              
1 43010U 17072A   22212.34502234  .00000006  00000+0  24271-4 0  9992
2 43010  98.8172 156.7311 0002699 115.8060 244.3393 14.19215468243992
NOAA 20                 
1 43013U 17073A   22212.48747280  .00000014  00000+0  27164-4 0  9996
2 43013  98.7170 150.3562 0000846  67.7530 292.3736 14.19563681243479
GOES 17                 
1 43226U 18022A   22212.52896837  .00000102  00000+0  00000+0 0  9998
2 43226   0.0911 262.2247 0000202 215.3422 244.6790  1.00271797 16214
FENGYUN 2H              
1 43491U 18050A   22212.50428850 -.00000126  00000+0  00000+0 0  9994
2 43491   1.2554  96.3522 0004198  41.8704  71.7520  1.00270192 15238
METOP-C                 
1 43689U 18087A   22212.50346883  .00000026  00000+0  31981-4 0  9993
2 43689  98.6813 271.7650 0001516 271.0310  89.0693 14.21498809193567
GEO-KOMPSAT-2A          
1 43823U 18100A   22212.53660529 -.00000340  00000+0  00000+0 0  9991
2 43823   0.0180 142.3349 0001822 325.0606 163.1708  1.00271732 13410
METEOR-M2 2             
1 44387U 19038A   22212.42739990 -.00000009  00000+0  15337-4 0  9991
2 44387  98.7252 172.8596 0002044 118.3023 241.8360 14.23715856159660
FENGYUN 3E              
1 49008U 21062A   22212.34847339 -.00000023  00000+0  97280-5 0  9998
2 49008  98.7114 213.6146 0001260 185.7849 174.3321 14.19735234 55546
GOES 18                 
1 51850U 22021A   22212.48803517  .00000100  00000+0  00000+0 0  9990
2 51850   0.0404  97.1285 0002644 115.0308 135.6347  1.00272284  1573
